{"type": "FeatureCollection", "features": [ {"type": "Feature", "properties": {"norad_id": 32225, "name": "FENGYUN 1C DEB", "group": "fengyun-1c-debris", "lat": -11.404149001025637, "lon": -142.97292272615826, "alt_km": 801.559147738496, "timestamp": "2025-12-16T03:53:27.342165+00:00", "meta": {"OBJECT_NAME": "FENGYUN 1C DEB", "OBJECT_ID": "1999-025CVX", "EPOCH": "2025-12-14T08:30:03.848544", "MEAN_MOTION": 14.13046821, "ECCENTRICITY": 0.00717754, "INCLINATION": 99.0923, "RA_OF_ASC_NODE": 37.0425, "ARG_OF_PERICENTER": 201.9609, "MEAN_ANOMALY": 157.8482, "EPHEMERIS_TYPE": 0, "CLASSIFICATION_TYPE": "U", "NORAD_CAT_ID": 32225, "ELEMENT_SET_NO": 999, "REV_AT_EPOCH": 68139, "BSTAR": 0.0002902606, "MEAN_MOTION_DOT": 5.09e-06, "MEAN_MOTION_DDOT": 0}, "tle": {"line1": "1 32225U 99025CVX 25348.35421121  .00000509  00000+0  29026-3 0  9995", "line2": "2 32225  99.0923  37.0425 0071775 201.9609 157.8482 14.13046821681395"}}, "geometry": {"type": "Point", "coordinates": [-142.97292272615826, -11.404149001025637]}}, {"type": "Feature", "properties": {"norad_id": 32230, "name": "FENGYUN 1C DEB", "group": "fengyun-1c-debris", "lat": -16.540982055355187, "lon": -42.66769260758899, "alt_km": 726.6211072645447, "timestamp": "2025-12-16T03:53:27.342175+00:00", "meta": {"OBJECT_NAME": "FENGYUN 1C DEB", "OBJECT_ID": "1999-025CWC", "EPOCH": "2025-12-13T09:10:06.590208", "MEAN_MOTION": 14.56150163, "ECCENTRICITY": 0.005055, "INCLINATION": 98.8706, "RA_OF_ASC_NODE": 137.0363, "ARG_OF_PERICENTER": 87.2509, "MEAN_ANOMALY": 303.0071, "EPHEMERIS_TYPE": 0, "CLASSIFICATION_TYPE": "U", "NORAD_CAT_ID": 32230, "ELEMENT_SET_NO": 999, "REV_AT_EPOCH": 60679, "BSTAR": 0.0050290882, "MEAN_MOTION_DOT": 0.00022605, "MEAN_MOTION_DDOT": 0}, "tle": {"line1": "1 32230U 99025CWC 25347.38202072  .00022605  00000+0  50291-2 0  9993", "line2": "2 32230  98.8706 137.0363 0050550  87.2509 303.0071 14.56150163606793"}}, "geometry": {"type": "Point", "coordinates": [-42.66769260758899, -16.540982055355187]}}, {"type": "Feature", "properties": {"norad_id": 32234, "name": "FENGYUN 1C DEB", "group": "fengyun-1c-debris", "lat": -76.46928707814433, "lon": -121.6683988568271, "alt_km": 851.2558976615883, "timestamp": "2025-12-16T03:53:27.342186+00:00", "meta": {"OBJECT_NAME": "FENGYUN 1C DEB", "OBJECT_ID": "1999-025CWG", "EPOCH": "2025-12-14T12:38:46.497984", "MEAN_MOTION": 13.9413283, "ECCENTRICITY": 0.01374559, "INCLINATION": 98.529, "RA_OF_ASC_NODE": 198.2432, "ARG_OF_PERICENTER": 331.2039, "MEAN_ANOMALY": 28.1585, "EPHEMERIS_TYPE": 0, "CLASSIFICATION_TYPE": "U", "NORAD_CAT_ID": 32234, "ELEMENT_SET_NO": 999, "REV_AT_EPOCH": 93234, "BSTAR": 0.0014985343, "MEAN_MOTION_DOT": 2.108e-05, "MEAN_MOTION_DDOT": 0}, "tle": {"line1": "1 32234U 99025CWG 25348.52692706  .00002108  00000+0  14985-2 0  9997", "line2": "2 32234  98.5290 198.2432 0137455 331.2039  28.1585 13.94132830932348"}}, "geometry": {"type": "Point", "coordinates": [-121.6683988568271, -76.46928707814433]}}, {"type": "Feature", "properties": {"norad_id": 32241, "name": "FENGYUN 1C DEB", "group": "fengyun-1c-debris", "lat": 22.638527930695503, "lon": 15.93158441167825, "alt_km": 898.5282671682598, "timestamp": "2025-12-16T03:53:27.342196+00:00", "meta": {"OBJECT_NAME": "FENGYUN 1C DEB", "OBJECT_ID": "1999-025CWP", "EPOCH": "2025-12-12T20:47:10.610592", "MEAN_MOTION": 14.28745094, "ECCENTRICITY": 0.01463636, "INCLINATION": 99.0782, "RA_OF_ASC_NODE": 16.3251, "ARG_OF_PERICENTER": 223.1188, "MEAN_ANOMALY": 135.8454, "EPHEMERIS_TYPE": 0, "CLASSIFICATION_TYPE": "U", "NORAD_CAT_ID": 32241, "ELEMENT_SET_NO": 999, "REV_AT_EPOCH": 93825, "BSTAR": 0.0022024177, "MEAN_MOTION_DOT": 6.175e-05, "MEAN_MOTION_DDOT": 0}, "tle": {"line1": "1 32241U 99025CWP 25346.86609503  .00006175  00000+0  22024-2 0  9994", "line2": "2 32241  99.0782  16.3251 0146363 223.1188 135.8454 14.28745094938256"}}, "geometry": {"type": "Point", "coordinates": [15.93158441167825, 22.638527930695503]}}, {"type": "Feature", "properties": {"norad_id": 32243, "name": "FENGYUN 1C DEB", "group": "fengyun-1c-debris", "lat": 27.112229486153147, "lon": 10.217114480826769, "alt_km": 858.8769887241788, "timestamp": "2025-12-16T03:53:27.342207+00:00", "meta": {"OBJECT_NAME": "FENGYUN 1C DEB", "OBJECT_ID": "1999-025CWR", "EPOCH": "2025-12-15T00:24:20.471040", "MEAN_MOTION": 14.04620462, "ECCENTRICITY": 0.02694033, "INCLINATION": 98.2683, "RA_OF_ASC_NODE": 13.4418, "ARG_OF_PERICENTER": 117.093, "MEAN_ANOMALY": 245.7997, "EPHEMERIS_TYPE": 0, "CLASSIFICATION_TYPE": "U", "NORAD_CAT_ID": 32243, "ELEMENT_SET_NO": 999, "REV_AT_EPOCH": 93620, "BSTAR": 0.0014560342, "MEAN_MOTION_DOT": 3.184e-05, "MEAN_MOTION_DDOT": 0}, "tle": {"line1": "1 32243U 99025CWR 25349.01690360  .00003184  00000+0  14560-2 0  9990", "line2": "2 32243  98.2683  13.4418 0269403 117.0930 245.7997 14.04620462936200"}}, "geometry": {"type": "Point", "coordinates": [10.217114480826769, 27.112229486153147]}}, {"type": "Feature", "properties": {"norad_id": 32245, "name": "FENGYUN 1C DEB", "group": "fengyun-1c-debris", "lat": 67.63159381666703, "lon": 28.179766433891523, "alt_km": 684.0775818448647, "timestamp": "2025-12-16T03:53:27.342218+00:00", "meta": {"OBJECT_NAME": "FENGYUN 1C DEB", "OBJECT_ID": "1999-025CWT", "EPOCH": "2025-12-08T06:47:00.083040", "MEAN_MOTION": 14.76843452, "ECCENTRICITY": 0.00978135, "INCLINATION": 98.6545, "RA_OF_ASC_NODE": 178.0112, "ARG_OF_PERICENTER": 355.9473, "MEAN_ANOMALY": 4.0932, "EPHEMERIS_TYPE": 0, "CLASSIFICATION_TYPE": "U", "NORAD_CAT_ID": 32245, "ELEMENT_SET_NO": 999, "REV_AT_EPOCH": 66040, "BSTAR": 0.0014541087, "MEAN_MOTION_DOT": 0.00011, "MEAN_MOTION_DDOT": 0}, "tle": {"line1": "1 32245U 99025CWT 25342.28263985  .00011000  00000+0  14541-2 0  9998", "line2": "2 32245  98.6545 178.0112 0097813 355.9473   4.0932 14.76843452660407"}}, "geometry": {"type": "Point", "coordinates": [28.179766433891523, 67.63159381666703]}}, {"type": "Feature", "properties": {"norad_id": 32304, "name": "FENGYUN 1C DEB", "group": "fengyun-1c-debris", "lat": 34.61373888825152, "lon": 131.67994522713892, "alt_km": 710.5638669602113, "timestamp": "2025-12-16T03:53:27.342228+00:00", "meta": {"OBJECT_NAME": "FENGYUN 1C DEB", "OBJECT_ID": "1999-025CWV", "EPOCH": "2025-12-03T02:19:20.087328", "MEAN_MOTION": 14.50391603, "ECCENTRICITY": 0.00495576, "INCLINATION": 99.3949, "RA_OF_ASC_NODE": 290.5539, "ARG_OF_PERICENTER": 255.7789, "MEAN_ANOMALY": 103.7894, "EPHEMERIS_TYPE": 0, "CLASSIFICATION_TYPE": "U", "NORAD_CAT_ID": 32304, "ELEMENT_SET_NO": 999, "REV_AT_EPOCH": 56133, "BSTAR": 0.0019806873, "MEAN_MOTION_DOT": 7.809e-05, "MEAN_MOTION_DDOT": 0}, "tle": {"line1": "1 32304U 99025CWV 25337.09676027  .00007809  00000+0  19807-2 0  9994", "line2": "2 32304  99.3949 290.5539 0049557 255.7789 103.7894 14.50391603561335"}}, "geometry": {"type": "Point", "coordinates": [131.67994522713892, 34.61373888825152]}}, {"type": "Feature", "properties": {"norad_id": 32308, "name": "FENGYUN 1C DEB", "group": "fengyun-1c-debris", "lat": -33.19340779951392, "lon": -142.5495897515282, "alt_km": 956.1672706868567, "timestamp": "2025-12-16T03:53:27.342238+00:00", "meta": {"OBJECT_NAME": "FENGYUN 1C DEB", "OBJECT_ID": "1999-025CWZ", "EPOCH": "2025-12-14T15:00:21.211200", "MEAN_MOTION": 14.05510604, "ECCENTRICITY": 0.0108842, "INCLINATION": 97.7754, "RA_OF_ASC_NODE": 41.2592, "ARG_OF_PERICENTER": 55.1712, "MEAN_ANOMALY": 305.9639, "EPHEMERIS_TYPE": 0, "CLASSIFICATION_TYPE": "U", "NORAD_CAT_ID": 32308, "ELEMENT_SET_NO": 999, "REV_AT_EPOCH": 65438, "BSTAR": 0.0014002809, "MEAN_MOTION_DOT": 2.366e-05, "MEAN_MOTION_DDOT": 0}, "tle": {"line1": "1 32308U 99025CWZ 25348.62524550  .00002366  00000+0  14003-2 0  9998", "line2": "2 32308  97.7754  41.2592 0108842  55.1712 305.9639 14.05510604654381"}}, "geometry": {"type": "Point", "coordinates": [-142.5495897515282, -33.19340779951392]}}, {"type": "Feature", "properties": {"norad_id": 32314, "name": "FENGYUN 1C DEB", "group": "fengyun-1c-debris", "lat": -79.04057280077151, "lon": -138.12952309540267, "alt_km": 683.2384853722215, "timestamp": "2025-12-16T03:53:27.342249+00:00", "meta": {"OBJECT_NAME": "FENGYUN 1C DEB", "OBJECT_ID": "1999-025CXF", "EPOCH": "2025-12-09T13:16:04.145664", "MEAN_MOTION": 14.79358552, "ECCENTRICITY": 0.0149391, "INCLINATION": 98.8627, "RA_OF_ASC_NODE": 88.2704, "ARG_OF_PERICENTER": 167.7932, "MEAN_ANOMALY": 192.6962, "EPHEMERIS_TYPE": 0, "CLASSIFICATION_TYPE": "U", "NORAD_CAT_ID": 32314, "ELEMENT_SET_NO": 999, "REV_AT_EPOCH": 97383, "BSTAR": 0.0023179, "MEAN_MOTION_DOT": 0.00020854, "MEAN_MOTION_DDOT": 0}, "tle": {"line1": "1 32314U 99025CXF 25343.55282576  .00020854  00000+0  23179-2 0  9997", "line2": "2 32314  98.8627  88.2704 0149391 167.7932 192.6962 14.79358552973830"}}, "geometry": {"type": "Point", "coordinates": [-138.12952309540267, -79.04057280077151]}}, {"type": "Feature", "properties": {"norad_id": 32315, "name": "FENGYUN 1C DEB", "group": "fengyun-1c-debris", "lat": 30.91340086114242, "lon": 127.13536516025206, "alt_km": 962.589997437497, "timestamp": "2025-12-16T03:53:27.342259+00:00", "meta": {"OBJECT_NAME": "FENGYUN 1C DEB", "OBJECT_ID": "1999-025CXG", "EPOCH": "2025-11-20T16:04:27.676128", "MEAN_MOTION": 13.66155502, "ECCENTRICITY": 0.02289149, "INCLINATION": 100.8052, "RA_OF_ASC_NODE": 105.2905, "ARG_OF_PERICENTER": 168.6, "MEAN_ANOMALY": 192.0449, "EPHEMERIS_TYPE": 0, "CLASSIFICATION_TYPE": "U", "NORAD_CAT_ID": 32315, "ELEMENT_SET_NO": 999, "REV_AT_EPOCH": 60787, "BSTAR": 0.00024184327, "MEAN_MOTION_DOT": 1.85e-06, "MEAN_MOTION_DDOT": 0}, "tle": {"line1": "1 32315U 99025CXG 25324.66976477  .00000185  00000+0  24184-3 0  9992", "line2": "2 32315 100.8052 105.2905 0228914 168.6000 192.0449 13.66155502607872"}}, "geometry": {"type": "Point", "coordinates": [127.13536516025206, 30.91340086114242]}}]}